ADRAS-J                 
1 58992U 24034A   24146.47166581  .00005114  00000+0  47747-3 0  9993
2 58992  98.2113 118.4697 0045953 122.2502 238.3183 14.93856775 14474
